[{"OBJECT_NAME":"STARLINK-31585","OBJECT_ID":"2024-080H","EPOCH":"2026-03-09T06:24:08.620416","MEAN_MOTION":15.27590267,"ECCENTRICITY":0.00037179,"INCLINATION":43.0022,"RA_OF_ASC_NODE":36.3479,"ARG_OF_PERICENTER":254.4766,"MEAN_ANOMALY":105.5675,"EPHEMERIS_TYPE":0,"CLASSIFICATION_TYPE":"U","NORAD_CAT_ID":59608,"ELEMENT_SET_NO":999,"REV_AT_EPOCH":10452,"BSTAR":-0.00027197075,"MEAN_MOTION_DOT":-7.743e-5,"MEAN_MOTION_DDOT":0},{"OBJECT_NAME":"FLOCK 4G-7","OBJECT_ID":"2025-009R","EPOCH":"2026-03-09T19:11:56.638176","MEAN_MOTION":15.27141471,"ECCENTRICITY":0.00013963,"INCLINATION":97.3984,"RA_OF_ASC_NODE":150.827,"ARG_OF_PERICENTER":336.9783,"MEAN_ANOMALY":23.1393,"EPHEMERIS_TYPE":0,"CLASSIFICATION_TYPE":"U","NORAD_CAT_ID":62624,"ELEMENT_SET_NO":999,"REV_AT_EPOCH":6372,"BSTAR":0.0004316781,"MEAN_MOTION_DOT":0.00011422,"MEAN_MOTION_DDOT":0}]
